[{"OBJECT_NAME":"STARLINK-5537","OBJECT_ID":"2023-013BF","EPOCH":"2026-03-09T00:38:05.207424","MEAN_MOTION":15.02535629,"ECCENTRICITY":0.00019125,"INCLINATION":43.0061,"RA_OF_ASC_NODE":316.5818,"ARG_OF_PERICENTER":251.5683,"MEAN_ANOMALY":108.4951,"EPHEMERIS_TYPE":0,"CLASSIFICATION_TYPE":"U","NORAD_CAT_ID":55384,"ELEMENT_SET_NO":999,"REV_AT_EPOCH":17146,"BSTAR":5.9815033e-5,"MEAN_MOTION_DOT":6.04e-6,"MEAN_MOTION_DDOT":0},{"OBJECT_NAME":"FENGYUN 1C DEB","OBJECT_ID":"1999-025CGF","EPOCH":"2026-03-09T22:03:04.747680","MEAN_MOTION":14.70112354,"ECCENTRICITY":0.01494246,"INCLINATION":99.2965,"RA_OF_ASC_NODE":238.5623,"ARG_OF_PERICENTER":145.3252,"MEAN_ANOMALY":215.7803,"EPHEMERIS_TYPE":0,"CLASSIFICATION_TYPE":"U","NORAD_CAT_ID":31780,"ELEMENT_SET_NO":999,"REV_AT_EPOCH":99778,"BSTAR":0.00059016291,"MEAN_MOTION_DOT":4.146e-5,"MEAN_MOTION_DDOT":0}]
